{
  "type": "FeatureCollection",
  "features": [
    {
      "type": "Feature",
      "properties": {
        "norad_id": 50032,
        "name": "COSMOS 1408 DEB",
        "group": "cosmos-1408-debris",
        "lat": -32.01212947546521,
        "lon": 49.476392024242614,
        "alt_km": 442.9096729465173,
        "timestamp": "2025-12-16T23:36:36.466969+00:00",
        "meta_object_name": "COSMOS 1408 DEB",
        "meta_object_id": "1982-092RU",
        "meta_epoch": "2025-12-16T05:06:21.225888",
        "meta_mean_motion": 15.45730452,
        "meta_eccentricity": 0.00155777,
        "meta_inclination": 82.5646,
        "meta_ra_of_asc_node": 54.9497,
        "meta_arg_of_pericenter": 195.434,
        "meta_mean_anomaly": 164.6436,
        "meta_ephemeris_type": 0,
        "meta_classification_type": "U",
        "meta_norad_cat_id": 50032,
        "meta_element_set_no": 999,
        "meta_rev_at_epoch": 22657,
        "meta_bstar": 8.4676091e-05,
        "meta_mean_motion_dot": 4.151e-05,
        "meta_mean_motion_ddot": 0,
        "tle_line1": "1 50032U 82092RU  25350.21274567  .00004151  00000+0  84676-4 0  9995",
        "tle_line2": "2 50032  82.5646  54.9497 0015577 195.4340 164.6436 15.45730452226570"
      },
      "geometry": {
        "type": "Point",
        "coordinates": [
          49.476392024242614,
          -32.01212947546521
        ]
      }
    },
    {
      "type": "Feature",
      "properties": {
        "norad_id": 50058,
        "name": "COSMOS 1408 DEB",
        "group": "cosmos-1408-debris",
        "lat": 82.34274649837475,
        "lon": 170.11378685318348,
        "alt_km": 356.7580515096761,
        "timestamp": "2025-12-16T23:36:36.466989+00:00",
        "meta_object_name": "COSMOS 1408 DEB",
        "meta_object_id": "1982-092SW",
        "meta_epoch": "2025-12-16T06:19:54.692544",
        "meta_mean_motion": 15.64319409,
        "meta_eccentricity": 0.0016245,
        "meta_inclination": 82.6134,
        "meta_ra_of_asc_node": 65.6532,
        "meta_arg_of_pericenter": 87.0732,
        "meta_mean_anomaly": 273.2386,
        "meta_ephemeris_type": 0,
        "meta_classification_type": "U",
        "meta_norad_cat_id": 50058,
        "meta_element_set_no": 999,
        "meta_rev_at_epoch": 22859,
        "meta_bstar": 0.00025808893,
        "meta_mean_motion_dot": 0.00024871,
        "meta_mean_motion_ddot": 0,
        "tle_line1": "1 50058U 82092SW  25350.26382746  .00024871  00000+0  25809-3 0  9990",
        "tle_line2": "2 50058  82.6134  65.6532 0016245  87.0732 273.2386 15.64319409228595"
      },
      "geometry": {
        "type": "Point",
        "coordinates": [
          170.11378685318348,
          82.34274649837475
        ]
      }
    },
    {
      "type": "Feature",
      "properties": {
        "norad_id": 50404,
        "name": "COSMOS 1408 DEB",
        "group": "cosmos-1408-debris",
        "lat": 22.44903684174139,
        "lon": 27.441531246506855,
        "alt_km": 417.35678874407495,
        "timestamp": "2025-12-16T23:36:36.467003+00:00",
        "meta_object_name": "COSMOS 1408 DEB",
        "meta_object_id": "1982-092ADS",
        "meta_epoch": "2025-12-16T02:17:51.247392",
        "meta_mean_motion": 15.14319764,
        "meta_eccentricity": 0.01706326,
        "meta_inclination": 82.2038,
        "meta_ra_of_asc_node": 211.5967,
        "meta_arg_of_pericenter": 187.3723,
        "meta_mean_anomaly": 172.5,
        "meta_ephemeris_type": 0,
        "meta_classification_type": "U",
        "meta_norad_cat_id": 50404,
        "meta_element_set_no": 999,
        "meta_rev_at_epoch": 21244,
        "meta_bstar": 0.0022917687,
        "meta_mean_motion_dot": 0.00060969,
        "meta_mean_motion_ddot": 0,
        "tle_line1": "1 50404U 82092ADS 25350.09573203  .00060969  00000+0  22918-2 0  9991",
        "tle_line2": "2 50404  82.2038 211.5967 0170632 187.3723 172.5000 15.14319764212448"
      },
      "geometry": {
        "type": "Point",
        "coordinates": [
          27.441531246506855,
          22.44903684174139
        ]
      }
    },
    {
      "type": "Feature",
      "properties": {
        "norad_id": 50621,
        "name": "COSMOS 1408 DEB",
        "group": "cosmos-1408-debris",
        "lat": -5.756172142335766,
        "lon": 69.00837973852212,
        "alt_km": 416.1349140627917,
        "timestamp": "2025-12-16T23:36:36.467015+00:00",
        "meta_object_name": "COSMOS 1408 DEB",
        "meta_object_id": "1982-092ALR",
        "meta_epoch": "2025-12-16T06:40:00.223104",
        "meta_mean_motion": 15.56850674,
        "meta_eccentricity": 0.00290023,
        "meta_inclination": 82.5706,
        "meta_ra_of_asc_node": 70.4972,
        "meta_arg_of_pericenter": 139.5143,
        "meta_mean_anomaly": 220.8277,
        "meta_ephemeris_type": 0,
        "meta_classification_type": "U",
        "meta_norad_cat_id": 50621,
        "meta_element_set_no": 999,
        "meta_rev_at_epoch": 22305,
        "meta_bstar": 0.00028890542,
        "meta_mean_motion_dot": 0.00021197,
        "meta_mean_motion_ddot": 0,
        "tle_line1": "1 50621U 82092ALR 25350.27778036  .00021197  00000+0  28891-3 0  9990",
        "tle_line2": "2 50621  82.5706  70.4972 0029002 139.5143 220.8277 15.56850674223059"
      },
      "geometry": {
        "type": "Point",
        "coordinates": [
          69.00837973852212,
          -5.756172142335766
        ]
      }
    }
  ]
}